{"type": "FeatureCollection", "features": [ {"type": "Feature", "properties": {"norad_id": 32289, "name": "YAOGAN-3", "group": "resource", "lat": 56.229396222303926, "lon": -140.343959213177, "alt_km": 592.1866420143278, "timestamp": "2025-12-27T06:41:30.555186+00:00", "meta": {"OBJECT_NAME": "YAOGAN-3", "OBJECT_ID": "2007-055A", "EPOCH": "2025-12-26T23:41:42.010656", "MEAN_MOTION": 14.8992561, "ECCENTRICITY": 0.0001183, "INCLINATION": 97.8358, "RA_OF_ASC_NODE": 27.4825, "ARG_OF_PERICENTER": 82.4994, "MEAN_ANOMALY": 277.6358, "EPHEMERIS_TYPE": 0, "CLASSIFICATION_TYPE": "U", "NORAD_CAT_ID": 32289, "ELEMENT_SET_NO": 999, "REV_AT_EPOCH": 98021, "BSTAR": 0.00010197392, "MEAN_MOTION_DOT": 9.26e-06, "MEAN_MOTION_DDOT": 0}, "tle": {"line1": "1 32289U 07055A   25360.98729179  .00000926  00000+0  10197-3 0  9996", "line2": "2 32289  97.8358  27.4825 0001183  82.4994 277.6358 14.89925610980216"}}, "geometry": {"type": "Point", "coordinates": [-140.343959213177, 56.229396222303926]}}, {"type": "Feature", "properties": {"norad_id": 32376, "name": "COSMO-SKYMED 2", "group": "resource", "lat": -2.558887231184855, "lon": -177.2616632037803, "alt_km": 625.7784574226289, "timestamp": "2025-12-27T06:41:30.555199+00:00", "meta": {"OBJECT_NAME": "COSMO-SKYMED 2", "OBJECT_ID": "2007-059A", "EPOCH": "2025-12-26T22:36:07.958592", "MEAN_MOTION": 14.82160271, "ECCENTRICITY": 0.00012932, "INCLINATION": 97.8807, "RA_OF_ASC_NODE": 182.0518, "ARG_OF_PERICENTER": 83.1684, "MEAN_ANOMALY": 276.9676, "EPHEMERIS_TYPE": 0, "CLASSIFICATION_TYPE": "U", "NORAD_CAT_ID": 32376, "ELEMENT_SET_NO": 999, "REV_AT_EPOCH": 97648, "BSTAR": 8.479031e-05, "MEAN_MOTION_DOT": 6.23e-06, "MEAN_MOTION_DDOT": 0}, "tle": {"line1": "1 32376U 07059A   25360.94175878  .00000623  00000+0  84790-4 0  9999", "line2": "2 32376  97.8807 182.0518 0001293  83.1684 276.9676 14.82160271976481"}}, "geometry": {"type": "Point", "coordinates": [-177.2616632037803, -2.558887231184855]}}, {"type": "Feature", "properties": {"norad_id": 32382, "name": "RADARSAT-2", "group": "resource", "lat": 76.4834649974942, "lon": -135.43492465935375, "alt_km": 783.7524620343365, "timestamp": "2025-12-27T06:41:30.555210+00:00", "meta": {"OBJECT_NAME": "RADARSAT-2", "OBJECT_ID": "2007-061A", "EPOCH": "2025-12-26T23:30:23.914080", "MEAN_MOTION": 14.29985449, "ECCENTRICITY": 0.00011345, "INCLINATION": 98.5801, "RA_OF_ASC_NODE": 5.3623, "ARG_OF_PERICENTER": 86.4478, "MEAN_ANOMALY": 273.6834, "EPHEMERIS_TYPE": 0, "CLASSIFICATION_TYPE": "U", "NORAD_CAT_ID": 32382, "ELEMENT_SET_NO": 999, "REV_AT_EPOCH": 94134, "BSTAR": 2.7880353e-05, "MEAN_MOTION_DOT": 2.8e-07, "MEAN_MOTION_DDOT": 0}, "tle": {"line1": "1 32382U 07061A   25360.97944345  .00000028  00000+0  27880-4 0  9991", "line2": "2 32382  98.5801   5.3623 0001134  86.4478 273.6834 14.29985449941345"}}, "geometry": {"type": "Point", "coordinates": [-135.43492465935375, 76.4834649974942]}}, {"type": "Feature", "properties": {"norad_id": 32783, "name": "CARTOSAT-2A", "group": "resource", "lat": -30.22038058723824, "lon": 55.220246858948265, "alt_km": 631.229366794465, "timestamp": "2025-12-27T06:41:30.555221+00:00", "meta": {"OBJECT_NAME": "CARTOSAT-2A", "OBJECT_ID": "2008-021A", "EPOCH": "2025-12-26T22:42:37.951776", "MEAN_MOTION": 14.78954627, "ECCENTRICITY": 0.00108431, "INCLINATION": 97.7908, "RA_OF_ASC_NODE": 50.324, "ARG_OF_PERICENTER": 317.0772, "MEAN_ANOMALY": 42.9592, "EPHEMERIS_TYPE": 0, "CLASSIFICATION_TYPE": "U", "NORAD_CAT_ID": 32783, "ELEMENT_SET_NO": 999, "REV_AT_EPOCH": 95334, "BSTAR": 4.2188554e-05, "MEAN_MOTION_DOT": 2.61e-06, "MEAN_MOTION_DDOT": 0}, "tle": {"line1": "1 32783U 08021A   25360.94627259  .00000261  00000+0  42189-4 0  9990", "line2": "2 32783  97.7908  50.3240 0010843 317.0772  42.9592 14.78954627953340"}}, "geometry": {"type": "Point", "coordinates": [55.220246858948265, -30.22038058723824]}}, {"type": "Feature", "properties": {"norad_id": 33320, "name": "HUANJING 1A (HJ-1A)", "group": "resource", "lat": 67.25700326921398, "lon": -29.744687164212717, "alt_km": 609.7965885910999, "timestamp": "2025-12-27T06:41:30.555231+00:00", "meta": {"OBJECT_NAME": "HUANJING 1A (HJ-1A)", "OBJECT_ID": "2008-041A", "EPOCH": "2025-12-26T23:54:33.859008", "MEAN_MOTION": 14.83439235, "ECCENTRICITY": 0.0019003, "INCLINATION": 97.6555, "RA_OF_ASC_NODE": 348.6999, "ARG_OF_PERICENTER": 348.6851, "MEAN_ANOMALY": 11.3933, "EPHEMERIS_TYPE": 0, "CLASSIFICATION_TYPE": "U", "NORAD_CAT_ID": 33320, "ELEMENT_SET_NO": 999, "REV_AT_EPOCH": 93287, "BSTAR": 0.00024177131, "MEAN_MOTION_DOT": 1.94e-05, "MEAN_MOTION_DDOT": 0}, "tle": {"line1": "1 33320U 08041A   25360.99622522  .00001940  00000+0  24177-3 0  9994", "line2": "2 33320  97.6555 348.6999 0019003 348.6851  11.3933 14.83439235932877"}}, "geometry": {"type": "Point", "coordinates": [-29.744687164212717, 67.25700326921398]}}, {"type": "Feature", "properties": {"norad_id": 33321, "name": "HUANJING 1B (HJ-1B)", "group": "resource", "lat": -76.62621537039243, "lon": 138.24953342494774, "alt_km": 644.7498146147173, "timestamp": "2025-12-27T06:41:30.555243+00:00", "meta": {"OBJECT_NAME": "HUANJING 1B (HJ-1B)", "OBJECT_ID": "2008-041B", "EPOCH": "2025-12-26T23:02:56.150304", "MEAN_MOTION": 14.82860511, "ECCENTRICITY": 0.00376229, "INCLINATION": 97.6413, "RA_OF_ASC_NODE": 352.3252, "ARG_OF_PERICENTER": 30.6752, "MEAN_ANOMALY": 329.665, "EPHEMERIS_TYPE": 0, "CLASSIFICATION_TYPE": "U", "NORAD_CAT_ID": 33321, "ELEMENT_SET_NO": 999, "REV_AT_EPOCH": 93288, "BSTAR": 0.00021365759, "MEAN_MOTION_DOT": 1.7e-05, "MEAN_MOTION_DDOT": 0}, "tle": {"line1": "1 33321U 08041B   25360.96037211  .00001700  00000+0  21366-3 0  9998", "line2": "2 33321  97.6413 352.3252 0037622  30.6752 329.6650 14.82860511932886"}}, "geometry": {"type": "Point", "coordinates": [138.24953342494774, -76.62621537039243]}}, {"type": "Feature", "properties": {"norad_id": 33331, "name": "GEOEYE 1", "group": "resource", "lat": 19.08642739532587, "lon": 69.54218849802437, "alt_km": 680.1892381785256, "timestamp": "2025-12-27T06:41:30.555254+00:00", "meta": {"OBJECT_NAME": "GEOEYE 1", "OBJECT_ID": "2008-042A", "EPOCH": "2025-12-26T22:24:23.018400", "MEAN_MOTION": 14.64719571, "ECCENTRICITY": 0.00030851, "INCLINATION": 98.1235, "RA_OF_ASC_NODE": 72.0343, "ARG_OF_PERICENTER": 223.7241, "MEAN_ANOMALY": 136.3718, "EPHEMERIS_TYPE": 0, "CLASSIFICATION_TYPE": "U", "NORAD_CAT_ID": 33331, "ELEMENT_SET_NO": 999, "REV_AT_EPOCH": 92493, "BSTAR": 0.00013951811, "MEAN_MOTION_DOT": 6.95e-06, "MEAN_MOTION_DDOT": 0}, "tle": {"line1": "1 33331U 08042A   25360.93359975  .00000695  00000+0  13952-3 0  9995", "line2": "2 33331  98.1235  72.0343 0003085 223.7241 136.3718 14.64719571924930"}}, "geometry": {"type": "Point", "coordinates": [69.54218849802437, 19.08642739532587]}}, {"type": "Feature", "properties": {"norad_id": 33396, "name": "THEOS", "group": "resource", "lat": 62.62770174438867, "lon": 41.97467236750819, "alt_km": 818.1168624570992, "timestamp": "2025-12-27T06:41:30.555264+00:00", "meta": {"OBJECT_NAME": "THEOS", "OBJECT_ID": "2008-049A", "EPOCH": "2025-12-26T23:37:41.051424", "MEAN_MOTION": 14.20099159, "ECCENTRICITY": 0.0001209, "INCLINATION": 98.5843, "RA_OF_ASC_NODE": 58.6521, "ARG_OF_PERICENTER": 92.866, "MEAN_ANOMALY": 267.2655, "EPHEMERIS_TYPE": 0, "CLASSIFICATION_TYPE": "U", "NORAD_CAT_ID": 33396, "ELEMENT_SET_NO": 999, "REV_AT_EPOCH": 89352, "BSTAR": -2.8961804e-05, "MEAN_MOTION_DOT": -1.04e-06, "MEAN_MOTION_DDOT": 0}, "tle": {"line1": "1 33396U 08049A   25360.98450291 -.00000104  00000+0 -28962-4 0  9996", "line2": "2 33396  98.5843  58.6521 0001209  92.8660 267.2655 14.20099159893523"}}, "geometry": {"type": "Point", "coordinates": [41.97467236750819, 62.62770174438867]}}, {"type": "Feature", "properties": {"norad_id": 33412, "name": "COSMO-SKYMED 3", "group": "resource", "lat": -68.55670078802092, "lon": -127.53211113698335, "alt_km": 568.7581665939533, "timestamp": "2025-12-27T06:41:30.555275+00:00", "meta": {"OBJECT_NAME": "COSMO-SKYMED 3", "OBJECT_ID": "2008-054A", "EPOCH": "2025-12-26T23:01:38.417952", "MEAN_MOTION": 15.05480283, "ECCENTRICITY": 0.00171282, "INCLINATION": 97.845, "RA_OF_ASC_NODE": 211.5922, "ARG_OF_PERICENTER": 126.1106, "MEAN_ANOMALY": 234.1709, "EPHEMERIS_TYPE": 0, "CLASSIFICATION_TYPE": "U", "NORAD_CAT_ID": 33412, "ELEMENT_SET_NO": 999, "REV_AT_EPOCH": 93101, "BSTAR": 0.00047591702, "MEAN_MOTION_DOT": 6.8e-05, "MEAN_MOTION_DDOT": 0}, "tle": {"line1": "1 33412U 08054A   25360.95947243  .00006800  00000+0  47592-3 0  9992", "line2": "2 33412  97.8450 211.5922 0017128 126.1106 234.1709 15.05480283931012"}}, "geometry": {"type": "Point", "coordinates": [-127.53211113698335, -68.55670078802092]}}, {"type": "Feature", "properties": {"norad_id": 33446, "name": "YAOGAN-4", "group": "resource", "lat": 15.752952962545267, "lon": 113.48726944923719, "alt_km": 624.2607931053635, "timestamp": "2025-12-27T06:41:30.555291+00:00", "meta": {"OBJECT_NAME": "YAOGAN-4", "OBJECT_ID": "2008-061A", "EPOCH": "2025-12-26T18:36:57.311712", "MEAN_MOTION": 14.82723581, "ECCENTRICITY": 0.00129631, "INCLINATION": 97.9198, "RA_OF_ASC_NODE": 290.7385, "ARG_OF_PERICENTER": 273.4167, "MEAN_ANOMALY": 86.5564, "EPHEMERIS_TYPE": 0, "CLASSIFICATION_TYPE": "U", "NORAD_CAT_ID": 33446, "ELEMENT_SET_NO": 999, "REV_AT_EPOCH": 92011, "BSTAR": 0.00019776049, "MEAN_MOTION_DOT": 1.545e-05, "MEAN_MOTION_DDOT": 0}, "tle": {"line1": "1 33446U 08061A   25360.77566333  .00001545  00000+0  19776-3 0  9998", "line2": "2 33446  97.9198 290.7385 0012963 273.4167  86.5564 14.82723581920118"}}, "geometry": {"type": "Point", "coordinates": [113.48726944923719, 15.752952962545267]}}]}